start=new Date('2022-08-23T00:00:00.000Z').valueOf();
sats=[{"DECAY_DATE":null,"BSTAR":"0.00008897100000","MEAN_ANOMALY":"273.8723","TIME_SYSTEM":"UTC","OBJECT_ID":"2020-001U","REF_FRAME":"TEME","EPHEMERIS_TYPE":"0","ARG_OF_PERICENTER":"86.2441","TLE_LINE1":"1 44932U 20001U   22234.81973764  .00001044  00000-0  88971-4 0  9999","SEMIMAJOR_AXIS":"6925.370","LAUNCH_DATE":"2020-01-07","NORAD_CAT_ID":"44932","SITE":"AFETR","CLASSIFICATION_TYPE":"U","TLE_LINE2":"2 44932  53.0552  39.5162 0001528  86.2441 273.8723 15.06393086145914","MEAN_ELEMENT_THEORY":"SGP4","ELEMENT_SET_NO":"999","APOAPSIS":"548.293","MEAN_MOTION_DOT":"0.00001044","RA_OF_ASC_NODE":"39.5162","MEAN_MOTION_DDOT":"0.0000000000000","GP_ID":"210774153","OBJECT_TYPE":"PAYLOAD","MEAN_MOTION":"15.06393086","CENTER_NAME":"EARTH","PERIAPSIS":"546.177","FILE":"3544179","INCLINATION":"53.0552","EPOCH":"2022-08-22T19:40:25.332096","REV_AT_EPOCH":"14591","COUNTRY_CODE":"US","RCS_SIZE":"LARGE","ECCENTRICITY":"0.00015280","PERIOD":"95.593","OBJECT_NAME":"STARLINK-1130"},{"NORAD_CAT_ID":"44933","SITE":"AFETR","ARG_OF_PERICENTER":"79.9571","TLE_LINE1":"1 44933U 20001V   22234.64649847  .00000751  00000-0  69312-4 0  9995","LAUNCH_DATE":"2020-01-07","SEMIMAJOR_AXIS":"6925.382","OBJECT_ID":"2020-001V","REF_FRAME":"TEME","EPHEMERIS_TYPE":"0","BSTAR":"0.00006931200000","DECAY_DATE":null,"MEAN_ANOMALY":"280.1576","TIME_SYSTEM":"UTC","MEAN_ELEMENT_THEORY":"SGP4","CLASSIFICATION_TYPE":"U","TLE_LINE2":"2 44933  53.0550  40.3080 0001400  79.9571 280.1576 15.06389048145947","CENTER_NAME":"EARTH","PERIAPSIS":"546.278","FILE":"3544179","GP_ID":"210774905","OBJECT_TYPE":"PAYLOAD","MEAN_MOTION":"15.06389048","RA_OF_ASC_NODE":"40.3080","MEAN_MOTION_DDOT":"0.0000000000000","ELEMENT_SET_NO":"999","APOAPSIS":"548.217","MEAN_MOTION_DOT":"0.00000751","OBJECT_NAME":"STARLINK-1144","RCS_SIZE":"LARGE","ECCENTRICITY":"0.00014000","PERIOD":"95.593","REV_AT_EPOCH":"14594","COUNTRY_CODE":"US","INCLINATION":"53.0550","EPOCH":"2022-08-22T15:30:57.467808"},{"OBJECT_NAME":"STARLINK-1071","PERIOD":"95.592","RCS_SIZE":"LARGE","ECCENTRICITY":"0.00012920","REV_AT_EPOCH":"14494","COUNTRY_CODE":"US","EPOCH":"2022-08-22T17:25:03.751968","INCLINATION":"53.0549","FILE":"3544179","PERIAPSIS":"546.331","CENTER_NAME":"EARTH","MEAN_MOTION":"15.06396163","GP_ID":"210774656","OBJECT_TYPE":"PAYLOAD","MEAN_MOTION_DDOT":"0.0000000000000","RA_OF_ASC_NODE":"19.9514","APOAPSIS":"548.120","ELEMENT_SET_NO":"999","MEAN_MOTION_DOT":"0.00001004","MEAN_ELEMENT_THEORY":"SGP4","TLE_LINE2":"2 44934  53.0549  19.9514 0001292  98.3364 261.7772 15.06396163144942","CLASSIFICATION_TYPE":"U","SITE":"AFETR","NORAD_CAT_ID":"44934","TLE_LINE1":"1 44934U 20001W   22234.72573787  .00001004  00000-0  86315-4 0  9998","LAUNCH_DATE":"2020-01-07","SEMIMAJOR_AXIS":"6925.360","ARG_OF_PERICENTER":"98.3364","EPHEMERIS_TYPE":"0","OBJECT_ID":"2020-001W","REF_FRAME":"TEME","TIME_SYSTEM":"UTC","BSTAR":"0.00008631500000","DECAY_DATE":null,"MEAN_ANOMALY":"261.7772"},{"MEAN_MOTION_DDOT":"0.0000000000000","RA_OF_ASC_NODE":"20.0440","APOAPSIS":"548.111","ELEMENT_SET_NO":"999","MEAN_MOTION_DOT":"0.00002386","PERIAPSIS":"546.348","CENTER_NAME":"EARTH","FILE":"3544179","GP_ID":"210773405","OBJECT_TYPE":"PAYLOAD","MEAN_MOTION":"15.06394873","REV_AT_EPOCH":"14494","COUNTRY_CODE":"US","INCLINATION":"53.0566","EPOCH":"2022-08-22T16:53:13.427232","OBJECT_NAME":"STARLINK-1079","RCS_SIZE":"LARGE","ECCENTRICITY":"0.00012730","PERIOD":"95.592","OBJECT_ID":"2020-001Z","REF_FRAME":"TEME","EPHEMERIS_TYPE":"0","BSTAR":"0.00017903000000","DECAY_DATE":null,"MEAN_ANOMALY":"267.5055","TIME_SYSTEM":"UTC","SITE":"AFETR","NORAD_CAT_ID":"44937","ARG_OF_PERICENTER":"92.6080","TLE_LINE1":"1 44937U 20001Z   22234.70362763  .00002386  00000-0  17903-3 0  9999","SEMIMAJOR_AXIS":"6925.364","LAUNCH_DATE":"2020-01-07","TLE_LINE2":"2 44937  53.0566  20.0440 0001273  92.6080 267.5055 15.06394873144940","CLASSIFICATION_TYPE":"U","MEAN_ELEMENT_THEORY":"SGP4"},{"RCS_SIZE":"LARGE","ECCENTRICITY":"0.00013300","PERIOD":"95.593","OBJECT_NAME":"STARLINK-1082","INCLINATION":"53.0569","EPOCH":"2022-08-22T03:21:08.117856","REV_AT_EPOCH":"14485","COUNTRY_CODE":"US","GP_ID":"210738968","OBJECT_TYPE":"PAYLOAD","MEAN_MOTION":"15.06389804","PERIAPSIS":"546.324","CENTER_NAME":"EARTH","FILE":"3543757","ELEMENT_SET_NO":"999","APOAPSIS":"548.166","MEAN_MOTION_DOT":"0.00000948","MEAN_MOTION_DDOT":"0.0000000000000","RA_OF_ASC_NODE":"22.5783","MEAN_ELEMENT_THEORY":"SGP4","CLASSIFICATION_TYPE":"U","TLE_LINE2":"2 44938  53.0569  22.5783 0001330  84.2910 275.8230 15.06389804144859","ARG_OF_PERICENTER":"84.2910","TLE_LINE1":"1 44938U 20001AA  22234.13967729  .00000948  00000-0  82546-4 0  9998","LAUNCH_DATE":"2020-01-07","SEMIMAJOR_AXIS":"6925.380","SITE":"AFETR","NORAD_CAT_ID":"44938","DECAY_DATE":null,"MEAN_ANOMALY":"275.8230","BSTAR":"0.00008254600000","TIME_SYSTEM":"UTC","OBJECT_ID":"2020-001AA","REF_FRAME":"TEME","EPHEMERIS_TYPE":"0"},{"RCS_SIZE":"LARGE","ECCENTRICITY":"0.00014020","PERIOD":"95.593","OBJECT_NAME":"STARLINK-1083","INCLINATION":"53.0567","EPOCH":"2022-08-22T16:16:04.449792","REV_AT_EPOCH":"14493","COUNTRY_CODE":"US","GP_ID":"210774406","OBJECT_TYPE":"PAYLOAD","MEAN_MOTION":"15.06388061","PERIAPSIS":"546.279","CENTER_NAME":"EARTH","FILE":"3544179","ELEMENT_SET_NO":"999","APOAPSIS":"548.221","MEAN_MOTION_DOT":"0.00000670","MEAN_MOTION_DDOT":"0.0000000000000","RA_OF_ASC_NODE":"20.1536","MEAN_ELEMENT_THEORY":"SGP4","CLASSIFICATION_TYPE":"U","TLE_LINE2":"2 44939  53.0567  20.1536 0001402  93.1969 266.9181 15.06388061144930","ARG_OF_PERICENTER":"93.1969","TLE_LINE1":"1 44939U 20001AB  22234.67782928  .00000670  00000-0  63864-4 0  9998","SEMIMAJOR_AXIS":"6925.385","LAUNCH_DATE":"2020-01-07","SITE":"AFETR","NORAD_CAT_ID":"44939","BSTAR":"0.00006386400000","DECAY_DATE":null,"MEAN_ANOMALY":"266.9181","TIME_SYSTEM":"UTC","OBJECT_ID":"2020-001AB","REF_FRAME":"TEME","EPHEMERIS_TYPE":"0"},{"DECAY_DATE":null,"BSTAR":"0.00010422000000","MEAN_ANOMALY":"281.3543","TIME_SYSTEM":"UTC","OBJECT_ID":"2020-001AC","REF_FRAME":"TEME","EPHEMERIS_TYPE":"0","ARG_OF_PERICENTER":"78.7587","TLE_LINE1":"1 44940U 20001AC  22234.68888142  .00001271  00000-0  10422-3 0  9995","SEMIMAJOR_AXIS":"6925.365","LAUNCH_DATE":"2020-01-07","SITE":"AFETR","NORAD_CAT_ID":"44940","CLASSIFICATION_TYPE":"U","TLE_LINE2":"2 44940  53.0572  20.1113 0001258  78.7587 281.3543 15.06394725144930","MEAN_ELEMENT_THEORY":"SGP4","APOAPSIS":"548.101","ELEMENT_SET_NO":"999","MEAN_MOTION_DOT":"0.00001271","MEAN_MOTION_DDOT":"0.0000000000000","RA_OF_ASC_NODE":"20.1113","GP_ID":"210775155","OBJECT_TYPE":"PAYLOAD","MEAN_MOTION":"15.06394725","PERIAPSIS":"546.359","CENTER_NAME":"EARTH","FILE":"3544179","INCLINATION":"53.0572","EPOCH":"2022-08-22T16:31:59.354688","REV_AT_EPOCH":"14493","COUNTRY_CODE":"US","RCS_SIZE":"LARGE","ECCENTRICITY":"0.00012580","PERIOD":"95.592","OBJECT_NAME":"STARLINK-1091"},{"BSTAR":"0.00006251100000","DECAY_DATE":null,"MEAN_ANOMALY":"277.9756","TIME_SYSTEM":"UTC","REF_FRAME":"TEME","OBJECT_ID":"2020-001AD","EPHEMERIS_TYPE":"0","ARG_OF_PERICENTER":"82.1405","LAUNCH_DATE":"2020-01-07","SEMIMAJOR_AXIS":"6925.355","TLE_LINE1":"1 44941U 20001AD  22234.84369006  .00000650  00000-0  62511-4 0  9994","SITE":"AFETR","NORAD_CAT_ID":"44941","TLE_LINE2":"2 44941  53.0572  19.4193 0001513  82.1405 277.9756 15.06398023144967","CLASSIFICATION_TYPE":"U","MEAN_ELEMENT_THEORY":"SGP4","MEAN_MOTION_DOT":"0.00000650","APOAPSIS":"548.267","ELEMENT_SET_NO":"999","RA_OF_ASC_NODE":"19.4193","MEAN_MOTION_DDOT":"0.0000000000000","OBJECT_TYPE":"PAYLOAD","GP_ID":"210773904","MEAN_MOTION":"15.06398023","PERIAPSIS":"546.172","CENTER_NAME":"EARTH","FILE":"3544179","INCLINATION":"53.0572","EPOCH":"2022-08-22T20:14:54.821184","COUNTRY_CODE":"US","REV_AT_EPOCH":"14496","ECCENTRICITY":"0.00015130","RCS_SIZE":"LARGE","PERIOD":"95.592","OBJECT_NAME":"STARLINK-1094"},{"ELEMENT_SET_NO":"999","APOAPSIS":"541.307","MEAN_MOTION_DOT":"0.00008647","MEAN_MOTION_DDOT":"0.0000000000000","RA_OF_ASC_NODE":"20.4093","MEAN_MOTION":"15.08780259","GP_ID":"210739468","OBJECT_TYPE":"PAYLOAD","FILE":"3543757","PERIAPSIS":"538.549","CENTER_NAME":"EARTH","EPOCH":"2022-08-22T09:43:31.894464","INCLINATION":"53.0554","REV_AT_EPOCH":"14491","COUNTRY_CODE":"US","PERIOD":"95.441","RCS_SIZE":"LARGE","ECCENTRICITY":"0.00019930","OBJECT_NAME":"STARLINK-1096","TIME_SYSTEM":"UTC","DECAY_DATE":null,"BSTAR":"0.00056161000000","MEAN_ANOMALY":"275.5904","EPHEMERIS_TYPE":"0","OBJECT_ID":"2020-001AE","REF_FRAME":"TEME","TLE_LINE1":"1 44942U 20001AE  22234.40523026  .00008647  00000-0  56161-3 0  9998","LAUNCH_DATE":"2020-01-07","SEMIMAJOR_AXIS":"6918.063","ARG_OF_PERICENTER":"84.5314","SITE":"AFETR","NORAD_CAT_ID":"44942","TLE_LINE2":"2 44942  53.0554  20.4093 0001993  84.5314 275.5904 15.08780259144918","CLASSIFICATION_TYPE":"U","MEAN_ELEMENT_THEORY":"SGP4"},{"CLASSIFICATION_TYPE":"U","TLE_LINE2":"2 44943  53.0567  20.1781 0001470  93.1154 267.0003 15.06388200144938","MEAN_ELEMENT_THEORY":"SGP4","EPHEMERIS_TYPE":"0","REF_FRAME":"TEME","OBJECT_ID":"2020-001AF","TIME_SYSTEM":"UTC","DECAY_DATE":null,"BSTAR":"0.00006092700000","MEAN_ANOMALY":"267.0003","SITE":"AFETR","NORAD_CAT_ID":"44943","SEMIMAJOR_AXIS":"6925.385","LAUNCH_DATE":"2020-01-07","TLE_LINE1":"1 44943U 20001AF  22234.67414339  .00000626  00000-0  60927-4 0  9999","ARG_OF_PERICENTER":"93.1154","COUNTRY_CODE":"US","REV_AT_EPOCH":"14493","EPOCH":"2022-08-22T16:10:45.988896","INCLINATION":"53.0567","OBJECT_NAME":"STARLINK-1100","PERIOD":"95.593","ECCENTRICITY":"0.00014700","RCS_SIZE":"LARGE","MEAN_MOTION_DDOT":"0.0000000000000","RA_OF_ASC_NODE":"20.1781","MEAN_MOTION_DOT":"0.00000626","APOAPSIS":"548.268","ELEMENT_SET_NO":"999","FILE":"3544179","CENTER_NAME":"EARTH","PERIAPSIS":"546.232","MEAN_MOTION":"15.06388200","OBJECT_TYPE":"PAYLOAD","GP_ID":"210774906"}];
